OBJECT_NAME,OBJECT_ID,EPOCH,MEAN_MOTION,ECCENTRICITY,INCLINATION,RA_OF_ASC_NODE,ARG_OF_PERICENTER,MEAN_ANOMALY,EPHEMERIS_TYPE,CLASSIFICATION_TYPE,NORAD_CAT_ID,ELEMENT_SET_NO,REV_AT_EPOCH,BSTAR,MEAN_MOTION_DOT,MEAN_MOTION_DDOT
EUTELSAT HOTBIRD 13F,2022-134A,2026-07-24T05:28:38.510400,1.00271948,.00019762,0.0534,282.0005,84.1863,30.9290,0,U,54048,999,1374,0,.92E-6,0
LDPE-2,2022-144A,2026-07-23T07:50:20.851008,1.00546878,.0002591,5.6832,63.2396,104.7545,128.1083,0,U,54219,999,1220,0,-.21E-6,0
EUTELSAT HOTBIRD 13G,2022-146A,2026-07-24T05:28:38.510400,1.00271710,.00020044,0.0544,225.4971,307.3410,224.2748,0,U,54225,999,783,0,.92E-6,0
ZHONGXING-19,2022-148A,2026-07-24T06:52:06.506688,1.00272590,.00034413,0.0161,83.3738,55.0486,69.7976,0,U,54230,999,1375,0,-.76E-6,0
GALAXY 31 (G-31),2022-153A,2026-07-24T07:41:07.901376,1.00269970,.00014987,0.0203,72.3340,54.6120,169.3786,0,U,54243,999,750,0,0,0
GALAXY 32 (G-32),2022-153B,2026-07-24T05:39:37.537632,1.00272081,.00015223,0.0109,49.4193,9.7282,236.7204,0,U,54244,999,1351,0,-.169E-5,0
EUTELSAT 10B,2022-157A,2026-07-23T21:35:11.196960,1.00275836,.00020425,0.0571,96.1799,15.1749,164.0275,0,U,54259,999,1339,0,.74E-6,0
GALAXY 35 (G-35),2022-170A,2026-07-24T05:41:37.275072,1.00269583,.00021738,0.0158,66.1810,55.8884,172.1930,0,U,54741,999,1326,0,0,0
GALAXY 36 (G-36),2022-170B,2026-07-24T05:40:14.978208,1.00272022,.0002796,0.0232,119.7967,341.7720,196.4505,0,U,54742,999,1314,0,-.18E-5,0
METEOSAT-12 (MTG-I1),2022-170C,2026-07-24T06:05:27.562272,1.00270351,.00041899,0.7343,21.1916,81.3512,290.3876,0,U,54743,999,1335,0,-.4E-7,0
SHIJIAN-23 (SJ-23),2023-002A,2026-07-22T12:40:38.595072,1.00073931,.0003374,3.8057,77.8677,277.0595,259.4329,0,U,55131,999,1286,0,-.358E-5,0
APSTAR-6E,2023-005A,2026-07-23T22:10:30.446400,1.00273811,.00027059,0.0521,239.1980,310.3345,218.7592,0,U,55239,999,1905,0,-.312E-5,0
USA 342,2023-008A,2026-07-19T08:09:31.023360,1.00270942,.0000215,0.0047,62.4879,103.9152,276.9334,0,U,55263,999,1283,0,0,0
ELEKTRO-L 4,2023-016A,2026-07-23T16:51:11.088288,1.00271083,.0001672,0.1003,279.6015,260.5596,179.8276,0,U,55506,999,1270,0,-.54E-6,0
AMAZONAS NEXUS,2023-017A,2026-07-23T17:49:39.751680,1.00270086,.00045538,0.0352,45.9154,45.8415,56.1210,0,U,55508,999,741,0,-.277E-5,0
ZHONGXING-26,2023-023A,2026-07-23T06:44:09.819744,1.00267097,.0003516,0.0608,72.0610,31.7010,63.3607,0,U,55686,999,1259,0,-.349E-5,0
LUCH-5X (OLYMP-K 2),2023-031A,2026-07-22T09:54:10.634112,1.00271960,.0001404,0.0266,95.1545,179.4046,236.1308,0,U,55841,999,1229,0,.36E-6,0
GAOFEN-13 02,2023-036A,2026-07-24T03:22:31.770336,1.00273210,.00034089,1.0309,5.6577,339.7104,155.4254,0,U,55912,999,1246,0,-.213E-5,0
SES-18,2023-038A,2026-07-24T04:44:28.484160,1.00272270,.00011248,0.0595,258.4801,288.6856,82.7682,0,U,55970,999,1247,0,-.96E-6,0
SES-19,2023-038B,2026-07-24T00:19:06.553056,1.00274620,.00019494,0.0374,282.6727,200.1543,48.7976,0,U,55971,999,1246,0,.92E-6,0
INTELSAT 40E (IS-40E),2023-052A,2026-07-24T04:51:08.369280,1.00272241,.0002547,0.0144,91.7305,51.5438,140.4339,0,U,56174,999,1219,0,-.169E-5,0
VIASAT-3 F1,2023-060A,2026-07-22T19:27:04.214016,1.00272039,.00005608,0.0071,14.7978,88.8033,39.8173,0,U,56370,999,1179,0,-.182E-5,0
ARCTURUS,2023-060B,2026-07-23T20:20:45.176640,1.00590488,.00015057,2.8654,79.4806,134.8858,141.4157,0,U,56371,999,1182,0,-.357E-5,0
GS-1,2023-060C,2026-07-23T01:43:51.752064,1.00264609,.0003262,2.8146,79.4006,278.2018,58.3060,0,U,56372,999,789,0,-.218E-5,0
BEIDOU-3 G4,2023-066A,2026-07-24T06:45:31.220640,1.00270133,.00052156,0.4540,341.4905,182.1061,19.8352,0,U,56564,999,1176,0,-.275E-5,0
ARABSAT-7B (BADR-8),2023-075A,2026-07-23T20:43:38.711136,1.00272902,.00033848,0.0731,30.4215,5.8545,242.2218,0,U,56757,999,1148,0,.15E-5,0
NVS-01 (IRNSS-1J),2023-076A,2026-07-24T06:42:31.507776,1.00274843,.0002903,2.0813,242.6576,16.2872,273.2122,0,U,56759,999,1148,0,-.329E-5,0
NUSANTARA TIGA (SATRIA),2023-086A,2026-07-23T13:40:44.976000,1.00269331,.000207,0.0364,15.9252,314.4971,322.0601,0,U,57045,999,1012,0,-.23E-5,0
H2SAT (HEINRICH HERTZ),2023-093A,2026-07-23T14:41:54.112704,1.00272596,.00007434,0.0270,105.6822,232.6551,184.1888,0,U,57213,999,1128,0,.7E-7,0
SYRACUSE 4B,2023-093B,2026-07-24T06:03:42.728832,1.00271770,.00001337,0.0171,63.3979,98.9195,224.1165,0,U,57214,999,733,0,-.48E-6,0
JUPITER 3 (ECHOSTAR 24),2023-108A,2026-07-23T10:16:08.765472,1.00271779,.00010966,0.0139,57.9655,64.4067,237.6270,0,U,57479,999,1101,0,-.145E-5,0
