{"epoch":1784902576,"count":18312,"objects":[{"id":"54048","name":"HOTBIRD 13F","type":"PAYLOAD","l1":"1 54048U 22134A   26205.22822350  .00000092  00000-0  00000-0 0  9993","l2":"2 54048   0.0534 282.0005 0001976  84.1863  30.9290  1.00271948 13745"},{"id":"54219","name":"LDPE-2","type":"PAYLOAD","l1":"1 54219U 22144A   26204.32663022 -.00000021  00000-0  00000+0 0  9995","l2":"2 54219   5.6832  63.2396 0002591 104.7545 128.1083  1.00546878 12206"},{"id":"54225","name":"HOTBIRD 13G","type":"PAYLOAD","l1":"1 54225U 22146A   26205.22822350  .00000092  00000-0  00000-0 0  9993","l2":"2 54225   0.0544 225.4971 0002004 307.3410 224.2748  1.00271710  7833"},{"id":"54230","name":"CHINASAT 19","type":"PAYLOAD","l1":"1 54230U 22148A   26205.28618642 -.00000076  00000-0  00000-0 0  9997","l2":"2 54230   0.0161  83.3738 0003441  55.0486  69.7976  1.00272590 13752"},{"id":"54243","name":"GALAXY 31","type":"PAYLOAD","l1":"1 54243U 22153A   26205.32023034  .00000000  00000-0  00000-0 0  9993","l2":"2 54243   0.0203  72.3340 0001499  54.6120 169.3786  1.00269970  7501"},{"id":"54244","name":"GALAXY 32","type":"PAYLOAD","l1":"1 54244U 22153B   26205.23585113 -.00000169  00000-0  00000-0 0  9992","l2":"2 54244   0.0109  49.4193 0001522   9.7282 236.7204  1.00272081 13514"},{"id":"54259","name":"EUTELSAT 10B","type":"PAYLOAD","l1":"1 54259U 22157A   26204.89943515  .00000074  00000-0  00000-0 0  9991","l2":"2 54259   0.0571  96.1799 0002042  15.1749 164.0275  1.00275836 13399"},{"id":"54741","name":"GALAXY 35","type":"PAYLOAD","l1":"1 54741U 22170A   26205.23723698  .00000000  00000-0  00000-0 0  9998","l2":"2 54741   0.0158  66.1810 0002174  55.8884 172.1930  1.00269583 13260"},{"id":"54742","name":"GALAXY 36","type":"PAYLOAD","l1":"1 54742U 22170B   26205.23628447 -.00000180  00000-0  00000-0 0  9995","l2":"2 54742   0.0232 119.7967 0002796 341.7720 196.4505  1.00272022 13144"},{"id":"54743","name":"METEOSAT 12 (MTG I1)","type":"PAYLOAD","l1":"1 54743U 22170C   26205.25379123 -.00000004  00000-0  00000-0 0  9997","l2":"2 54743   0.7343  21.1916 0004190  81.3512 290.3876  1.00270351 13352"},{"id":"55131","name":"SJ-23","type":"PAYLOAD","l1":"1 55131U 23002A   26203.52822448 -.00000358  00000-0  00000+0 0  9996","l2":"2 55131   3.8057  77.8677 0003374 277.0595 259.4329  1.00073931 12869"},{"id":"55239","name":"APSTAR 6E","type":"PAYLOAD","l1":"1 55239U 23005A   26204.92396350 -.00000312  00000-0  00000-0 0  9992","l2":"2 55239   0.0521 239.1980 0002706 310.3345 218.7592  1.00273811 19052"},{"id":"55263","name":"USA 342","type":"PAYLOAD","l1":"1 55263U 23008A   26200.33994240  .00000000  00000-0  00000+0 0  9997","l2":"2 55263   0.0047  62.4879 0000215 103.9152 276.9334  1.00270942 12832"},{"id":"55506","name":"ELEKTRO-L 4","type":"PAYLOAD","l1":"1 55506U 23016A   26204.70221167 -.00000054  00000-0  00000-0 0  9993","l2":"2 55506   0.1003 279.6015 0001672 260.5596 179.8276  1.00271083 12708"},{"id":"55508","name":"AMAZONAS NEXUS","type":"PAYLOAD","l1":"1 55508U 23017A   26204.74282120 -.00000277  00000-0  00000-0 0  9993","l2":"2 55508   0.0352  45.9154 0004554  45.8415  56.1210  1.00270086  7419"},{"id":"55686","name":"CHINASAT-26","type":"PAYLOAD","l1":"1 55686U 23023A   26204.28066921 -.00000349  00000-0  00000+0 0  9994","l2":"2 55686   0.0608  72.0610 0003516  31.7010  63.3607  1.00267097 12593"},{"id":"55841","name":"LUCH (OLYMP) 2","type":"PAYLOAD","l1":"1 55841U 23031A   26203.41262308  .00000036  00000-0  00000+0 0  9999","l2":"2 55841   0.0266  95.1545 0001404 179.4046 236.1308  1.00271960 12291"},{"id":"55912","name":"GAOFEN 13 02","type":"PAYLOAD","l1":"1 55912U 23036A   26205.14064549 -.00000213  00000-0  00000-0 0  9991","l2":"2 55912   1.0309   5.6577 0003409 339.7104 155.4254  1.00273210 12465"},{"id":"55970","name":"SES 18","type":"PAYLOAD","l1":"1 55970U 23038A   26205.19755190 -.00000096  00000-0  00000-0 0  9990","l2":"2 55970   0.0595 258.4801 0001125 288.6856  82.7682  1.00272270 12475"},{"id":"55971","name":"SES 19","type":"PAYLOAD","l1":"1 55971U 23038B   26205.01327029  .00000092  00000-0  00000-0 0  9993","l2":"2 55971   0.0374 282.6727 0001949 200.1543  48.7976  1.00274620 12461"},{"id":"56174","name":"INTELSAT 40E","type":"PAYLOAD","l1":"1 56174U 23052A   26205.20218020 -.00000169  00000-0  00000-0 0  9992","l2":"2 56174   0.0144  91.7305 0002547  51.5438 140.4339  1.00272241 12199"},{"id":"56370","name":"VIASAT 3-F1","type":"PAYLOAD","l1":"1 56370U 23060A   26203.81046544 -.00000182  00000-0  00000-0 0  9999","l2":"2 56370   0.0071  14.7978 0000561  88.8033  39.8173  1.00272039 11792"},{"id":"56371","name":"ARCTURUS","type":"PAYLOAD","l1":"1 56371U 23060B   26204.84774510 -.00000357  00000-0  00000-0 0  9999","l2":"2 56371   2.8654  79.4806 0001506 134.8858 141.4157  1.00590488 11822"},{"id":"56372","name":"GS-1","type":"PAYLOAD","l1":"1 56372U 23060C   26204.07212676 -.00000218  00000-0  00000+0 0  9990","l2":"2 56372   2.8146  79.4006 0003262 278.2018  58.3060  1.00264609  7897"},{"id":"56564","name":"BEIDOU 3 G4","type":"PAYLOAD","l1":"1 56564U 23066A   26205.28161135 -.00000275  00000-0  00000-0 0  9990","l2":"2 56564   0.4540 341.4905 0005216 182.1061  19.8352  1.00270133 11760"},{"id":"56757","name":"ARABSAT 7B (BADR 8)","type":"PAYLOAD","l1":"1 56757U 23075A   26204.86364249  .00000150  00000-0  00000-0 0  9999","l2":"2 56757   0.0731  30.4215 0003385   5.8545 242.2218  1.00272902 11482"},{"id":"56759","name":"NVS-01","type":"PAYLOAD","l1":"1 56759U 23076A   26205.27953134 -.00000329  00000-0  00000-0 0  9994","l2":"2 56759   2.0813 242.6576 0002903  16.2872 273.2122  1.00274843 11482"},{"id":"57045","name":"NUSANTARA TIGA","type":"PAYLOAD","l1":"1 57045U 23086A   26204.56996500 -.00000230  00000-0  00000+0 0  9999","l2":"2 57045   0.0364  15.9252 0002070 314.4971 322.0601  1.00269331 10121"},{"id":"57213","name":"H2SAT","type":"PAYLOAD","l1":"1 57213U 23093A   26204.61243186  .00000007  00000-0  00000-0 0  9997","l2":"2 57213   0.0270 105.6822 0000743 232.6551 184.1888  1.00272596 11283"},{"id":"57214","name":"SYRACUSE 4B","type":"PAYLOAD","l1":"1 57214U 23093B   26205.25257788 -.00000048  00000-0  00000-0 0  9998","l2":"2 57214   0.0171  63.3979 0000134  98.9195 224.1165  1.00271770  7335"},{"id":"57479","name":"JUPITER 3 (ECHOSTAR 24)","type":"PAYLOAD","l1":"1 57479U 23108A   26204.42787923 -.00000145  00000-0  00000-0 0  9993","l2":"2 57479   0.0139  57.9655 0001097  64.4067 237.6270  1.00271779 11012"}]}